[{"OBJECT_NAME":"OBJECT A","OBJECT_ID":"2024-203A","EPOCH":"2026-03-09T23:31:20.812800","MEAN_MOTION":15.27300571,"ECCENTRICITY":0.00108989,"INCLINATION":97.4288,"RA_OF_ASC_NODE":139.5608,"ARG_OF_PERICENTER":322.6893,"MEAN_ANOMALY":37.3588,"EPHEMERIS_TYPE":0,"CLASSIFICATION_TYPE":"U","NORAD_CAT_ID":61869,"ELEMENT_SET_NO":999,"REV_AT_EPOCH":7380,"BSTAR":0.00061472876,"MEAN_MOTION_DOT":0.00016411,"MEAN_MOTION_DDOT":0},{"OBJECT_NAME":"STARLINK-34135","OBJECT_ID":"2025-099N","EPOCH":"2026-03-09T08:08:01.376448","MEAN_MOTION":15.27590381,"ECCENTRICITY":0.00020956,"INCLINATION":43.0012,"RA_OF_ASC_NODE":178.117,"ARG_OF_PERICENTER":282.0487,"MEAN_ANOMALY":78.013,"EPHEMERIS_TYPE":0,"CLASSIFICATION_TYPE":"U","NORAD_CAT_ID":63964,"ELEMENT_SET_NO":999,"REV_AT_EPOCH":4728,"BSTAR":0.00086767981,"MEAN_MOTION_DOT":0.00023699,"MEAN_MOTION_DDOT":0}]
